LANDSAT 9               
1 49260U 21088A   24114.78468186  .00001453  00000+0  33211-3 0  9995
2 49260  98.1896 185.3174 0001152  84.4378 275.6952 14.57158094136770
